{"type": "FeatureCollection", "features": [ {"type": "Feature", "properties": {"norad_id": 38717, "name": "FENGYUN 1C DEB", "group": "fengyun-1c-debris", "lat": -47.0845371847888, "lon": 16.568121967738108, "alt_km": 796.431476666372, "timestamp": "2025-12-17T04:57:44.654704+00:00", "meta": {"OBJECT_NAME": "FENGYUN 1C DEB", "OBJECT_ID": "1999-025ETJ", "EPOCH": "2025-12-16T19:52:31.389312", "MEAN_MOTION": 14.19963624, "ECCENTRICITY": 0.00567162, "INCLINATION": 99.1594, "RA_OF_ASC_NODE": 6.1834, "ARG_OF_PERICENTER": 342.3119, "MEAN_ANOMALY": 195.7889, "EPHEMERIS_TYPE": 0, "CLASSIFICATION_TYPE": "U", "NORAD_CAT_ID": 38717, "ELEMENT_SET_NO": 999, "REV_AT_EPOCH": 58484, "BSTAR": 0.001367751, "MEAN_MOTION_DOT": 2.907e-05, "MEAN_MOTION_DDOT": 0}, "tle": {"line1": "1 38717U 99025ETJ 25350.82814108  .00002907  00000+0  13678-2 0  9992", "line2": "2 38717  99.1594   6.1834 0056716 342.3119 195.7889 14.19963624584846"}}, "geometry": {"type": "Point", "coordinates": [16.568121967738108, -47.0845371847888]}}, {"type": "Feature", "properties": {"norad_id": 38722, "name": "FENGYUN 1C DEB", "group": "fengyun-1c-debris", "lat": -63.0276603728138, "lon": -108.8140518182776, "alt_km": 803.902534076281, "timestamp": "2025-12-17T04:57:44.654713+00:00", "meta": {"OBJECT_NAME": "FENGYUN 1C DEB", "OBJECT_ID": "1999-025ETP", "EPOCH": "2025-12-11T12:50:39.493248", "MEAN_MOTION": 14.58349213, "ECCENTRICITY": 0.01472173, "INCLINATION": 99.3522, "RA_OF_ASC_NODE": 83.7029, "ARG_OF_PERICENTER": 98.5109, "MEAN_ANOMALY": 263.2801, "EPHEMERIS_TYPE": 0, "CLASSIFICATION_TYPE": "U", "NORAD_CAT_ID": 38722, "ELEMENT_SET_NO": 999, "REV_AT_EPOCH": 70446, "BSTAR": 0.0050298284, "MEAN_MOTION_DOT": 0.0002709, "MEAN_MOTION_DDOT": 0}, "tle": {"line1": "1 38722U 99025ETP 25345.53517932  .00027090  00000+0  50298-2 0  9994", "line2": "2 38722  99.3522  83.7029 0147217  98.5109 263.2801 14.58349213704460"}}, "geometry": {"type": "Point", "coordinates": [-108.8140518182776, -63.0276603728138]}}, {"type": "Feature", "properties": {"norad_id": 38725, "name": "FENGYUN 1C DEB", "group": "fengyun-1c-debris", "lat": -38.80169778978384, "lon": -70.60030314846018, "alt_km": 732.6266144730926, "timestamp": "2025-12-17T04:57:44.654722+00:00", "meta": {"OBJECT_NAME": "FENGYUN 1C DEB", "OBJECT_ID": "1999-025ETS", "EPOCH": "2025-12-16T14:37:57.853632", "MEAN_MOTION": 14.42899978, "ECCENTRICITY": 0.00349192, "INCLINATION": 98.8705, "RA_OF_ASC_NODE": 115.9924, "ARG_OF_PERICENTER": 245.3526, "MEAN_ANOMALY": 114.4025, "EPHEMERIS_TYPE": 0, "CLASSIFICATION_TYPE": "U", "NORAD_CAT_ID": 38725, "ELEMENT_SET_NO": 999, "REV_AT_EPOCH": 73408, "BSTAR": 0.0020514558, "MEAN_MOTION_DOT": 6.864e-05, "MEAN_MOTION_DDOT": 0}, "tle": {"line1": "1 38725U 99025ETS 25350.60969738  .00006864  00000+0  20515-2 0  9991", "line2": "2 38725  98.8705 115.9924 0034919 245.3526 114.4025 14.42899978734088"}}, "geometry": {"type": "Point", "coordinates": [-70.60030314846018, -38.80169778978384]}}, {"type": "Feature", "properties": {"norad_id": 38726, "name": "FENGYUN 1C DEB", "group": "fengyun-1c-debris", "lat": 78.4490755701253, "lon": -35.884118524054415, "alt_km": 532.6281203717326, "timestamp": "2025-12-17T04:57:44.654731+00:00", "meta": {"OBJECT_NAME": "FENGYUN 1C DEB", "OBJECT_ID": "1999-025ETT", "EPOCH": "2025-12-14T07:55:38.364096", "MEAN_MOTION": 15.03515609, "ECCENTRICITY": 0.00236546, "INCLINATION": 99.1373, "RA_OF_ASC_NODE": 12.6777, "ARG_OF_PERICENTER": 120.0885, "MEAN_ANOMALY": 240.2685, "EPHEMERIS_TYPE": 0, "CLASSIFICATION_TYPE": "U", "NORAD_CAT_ID": 38726, "ELEMENT_SET_NO": 999, "REV_AT_EPOCH": 69879, "BSTAR": 0.0066796574, "MEAN_MOTION_DOT": 0.00092734, "MEAN_MOTION_DDOT": 0}, "tle": {"line1": "1 38726U 99025ETT 25348.33030514  .00092734  00000+0  66797-2 0  9993", "line2": "2 38726  99.1373  12.6777 0023654 120.0885 240.2685 15.03515609698795"}}, "geometry": {"type": "Point", "coordinates": [-35.884118524054415, 78.4490755701253]}}, {"type": "Feature", "properties": {"norad_id": 38728, "name": "FENGYUN 1C DEB", "group": "fengyun-1c-debris", "lat": -10.86504873552424, "lon": 157.35534973595497, "alt_km": 708.7744440939614, "timestamp": "2025-12-17T04:57:44.654740+00:00", "meta": {"OBJECT_NAME": "FENGYUN 1C DEB", "OBJECT_ID": "1999-025ETV", "EPOCH": "2025-12-16T05:30:24.437664", "MEAN_MOTION": 14.70642228, "ECCENTRICITY": 0.00751505, "INCLINATION": 99.2586, "RA_OF_ASC_NODE": 338.0406, "ARG_OF_PERICENTER": 44.2688, "MEAN_ANOMALY": 14.9458, "EPHEMERIS_TYPE": 0, "CLASSIFICATION_TYPE": "U", "NORAD_CAT_ID": 38728, "ELEMENT_SET_NO": 999, "REV_AT_EPOCH": 65662, "BSTAR": 0.00091297706, "MEAN_MOTION_DOT": 5.742e-05, "MEAN_MOTION_DDOT": 0}, "tle": {"line1": "1 38728U 99025ETV 25350.22944951  .00005742  00000+0  91298-3 0  9993", "line2": "2 38728  99.2586 338.0406 0075150  44.2688  14.9458 14.70642228656625"}}, "geometry": {"type": "Point", "coordinates": [157.35534973595497, -10.86504873552424]}}, {"type": "Feature", "properties": {"norad_id": 38789, "name": "FENGYUN 1C DEB", "group": "fengyun-1c-debris", "lat": 78.1493621160412, "lon": 105.47667256441127, "alt_km": 718.4147781117663, "timestamp": "2025-12-17T04:57:44.654749+00:00", "meta": {"OBJECT_NAME": "FENGYUN 1C DEB", "OBJECT_ID": "1999-025EUD", "EPOCH": "2025-12-16T11:04:27.892416", "MEAN_MOTION": 14.45831603, "ECCENTRICITY": 0.02075268, "INCLINATION": 98.8566, "RA_OF_ASC_NODE": 236.7044, "ARG_OF_PERICENTER": 14.1855, "MEAN_ANOMALY": 164.1034, "EPHEMERIS_TYPE": 0, "CLASSIFICATION_TYPE": "U", "NORAD_CAT_ID": 38789, "ELEMENT_SET_NO": 999, "REV_AT_EPOCH": 61899, "BSTAR": 0.00050950207, "MEAN_MOTION_DOT": 2.303e-05, "MEAN_MOTION_DDOT": 0}, "tle": {"line1": "1 38789U 99025EUD 25350.46143394  .00002303  00000+0  50950-3 0  9998", "line2": "2 38789  98.8566 236.7044 0207526  14.1855 164.1034 14.45831603618998"}}, "geometry": {"type": "Point", "coordinates": [105.47667256441127, 78.1493621160412]}}, {"type": "Feature", "properties": {"norad_id": 38795, "name": "FENGYUN 1C DEB", "group": "fengyun-1c-debris", "lat": 22.73601811089777, "lon": -162.84110392080981, "alt_km": 1113.1025434301364, "timestamp": "2025-12-17T04:57:44.654757+00:00", "meta": {"OBJECT_NAME": "FENGYUN 1C DEB", "OBJECT_ID": "1999-025EUK", "EPOCH": "2025-12-16T08:15:33.594912", "MEAN_MOTION": 13.29919399, "ECCENTRICITY": 0.05021789, "INCLINATION": 98.7013, "RA_OF_ASC_NODE": 12.7481, "ARG_OF_PERICENTER": 246.8267, "MEAN_ANOMALY": 107.9214, "EPHEMERIS_TYPE": 0, "CLASSIFICATION_TYPE": "U", "NORAD_CAT_ID": 38795, "ELEMENT_SET_NO": 999, "REV_AT_EPOCH": 78560, "BSTAR": 0.0023166517, "MEAN_MOTION_DOT": 2.135e-05, "MEAN_MOTION_DDOT": 0}, "tle": {"line1": "1 38795U 99025EUK 25350.34413883  .00002135  00000+0  23167-2 0  9997", "line2": "2 38795  98.7013  12.7481 0502178 246.8267 107.9214 13.29919399785608"}}, "geometry": {"type": "Point", "coordinates": [-162.84110392080981, 22.73601811089777]}}, {"type": "Feature", "properties": {"norad_id": 38797, "name": "FENGYUN 1C DEB", "group": "fengyun-1c-debris", "lat": 54.69382421427506, "lon": 77.5885669832461, "alt_km": 1006.7707150780489, "timestamp": "2025-12-17T04:57:44.654767+00:00", "meta": {"OBJECT_NAME": "FENGYUN 1C DEB", "OBJECT_ID": "1999-025EUM", "EPOCH": "2025-12-16T10:41:55.010976", "MEAN_MOTION": 13.61612323, "ECCENTRICITY": 0.02448857, "INCLINATION": 99.4842, "RA_OF_ASC_NODE": 243.1962, "ARG_OF_PERICENTER": 211.82, "MEAN_ANOMALY": 146.7947, "EPHEMERIS_TYPE": 0, "CLASSIFICATION_TYPE": "U", "NORAD_CAT_ID": 38797, "ELEMENT_SET_NO": 999, "REV_AT_EPOCH": 59333, "BSTAR": 0.00022901732, "MEAN_MOTION_DOT": 1.7e-06, "MEAN_MOTION_DDOT": 0}, "tle": {"line1": "1 38797U 99025EUM 25350.44577559  .00000170  00000+0  22902-3 0  9995", "line2": "2 38797  99.4842 243.1962 0244885 211.8200 146.7947 13.61612323593333"}}, "geometry": {"type": "Point", "coordinates": [77.5885669832461, 54.69382421427506]}}, {"type": "Feature", "properties": {"norad_id": 38799, "name": "FENGYUN 1C DEB", "group": "fengyun-1c-debris", "lat": 79.02942449247327, "lon": -63.64276814640391, "alt_km": 779.5838674574325, "timestamp": "2025-12-17T04:57:44.654776+00:00", "meta": {"OBJECT_NAME": "FENGYUN 1C DEB", "OBJECT_ID": "1999-025EUP", "EPOCH": "2025-12-14T23:28:47.015616", "MEAN_MOTION": 14.48765117, "ECCENTRICITY": 0.01635791, "INCLINATION": 98.4058, "RA_OF_ASC_NODE": 64.4259, "ARG_OF_PERICENTER": 343.5032, "MEAN_ANOMALY": 16.0875, "EPHEMERIS_TYPE": 0, "CLASSIFICATION_TYPE": "U", "NORAD_CAT_ID": 38799, "ELEMENT_SET_NO": 999, "REV_AT_EPOCH": 64071, "BSTAR": 0.00063500214, "MEAN_MOTION_DOT": 2.787e-05, "MEAN_MOTION_DDOT": 0}, "tle": {"line1": "1 38799U 99025EUP 25348.97832194  .00002787  00000+0  63500-3 0  9996", "line2": "2 38799  98.4058  64.4259 0163579 343.5032  16.0875 14.48765117640712"}}, "geometry": {"type": "Point", "coordinates": [-63.64276814640391, 79.02942449247327]}}, {"type": "Feature", "properties": {"norad_id": 38801, "name": "FENGYUN 1C DEB", "group": "fengyun-1c-debris", "lat": -12.529779027515316, "lon": 43.50929900221645, "alt_km": 566.7816333307719, "timestamp": "2025-12-17T04:57:44.654784+00:00", "meta": {"OBJECT_NAME": "FENGYUN 1C DEB", "OBJECT_ID": "1999-025EUR", "EPOCH": "2025-12-14T23:38:20.156064", "MEAN_MOTION": 14.2482334, "ECCENTRICITY": 0.03468339, "INCLINATION": 98.3742, "RA_OF_ASC_NODE": 39.5088, "ARG_OF_PERICENTER": 345.3815, "MEAN_ANOMALY": 131.5103, "EPHEMERIS_TYPE": 0, "CLASSIFICATION_TYPE": "U", "NORAD_CAT_ID": 38801, "ELEMENT_SET_NO": 999, "REV_AT_EPOCH": 64392, "BSTAR": 0.00040763026, "MEAN_MOTION_DOT": 1.732e-05, "MEAN_MOTION_DDOT": 0}, "tle": {"line1": "1 38801U 99025EUR 25348.98495551  .00001732  00000+0  40763-3 0  9998", "line2": "2 38801  98.3742  39.5088 0346833 345.3815 131.5103 14.24823340643923"}}, "geometry": {"type": "Point", "coordinates": [43.50929900221645, -12.529779027515316]}}]}